[{"OBJECT_NAME":"CO3D 4","OBJECT_ID":"2025-156C","EPOCH":"2026-03-02T06:59:52.721952","MEAN_MOTION":15.20203154,"ECCENTRICITY":2.545e-5,"INCLINATION":97.4334,"RA_OF_ASC_NODE":141.5187,"ARG_OF_PERICENTER":280.3117,"MEAN_ANOMALY":79.8089,"EPHEMERIS_TYPE":0,"CLASSIFICATION_TYPE":"U","NORAD_CAT_ID":64901,"ELEMENT_SET_NO":999,"REV_AT_EPOCH":3329,"BSTAR":6.0250155e-5,"MEAN_MOTION_DOT":1.237e-5,"MEAN_MOTION_DDOT":0},{"OBJECT_NAME":"UNKNOWN","OBJECT_ID":"","EPOCH":"2026-03-05T07:23:30.759360","MEAN_MOTION":15.16846688,"ECCENTRICITY":0.00030538,"INCLINATION":98.6694,"RA_OF_ASC_NODE":94.3286,"ARG_OF_PERICENTER":181.4323,"MEAN_ANOMALY":178.6899,"EPHEMERIS_TYPE":0,"CLASSIFICATION_TYPE":"U","NORAD_CAT_ID":270304,"ELEMENT_SET_NO":999,"REV_AT_EPOCH":26068,"BSTAR":0.007049134,"MEAN_MOTION_DOT":0.00141256,"MEAN_MOTION_DDOT":0}]
